start=new Date('2022-03-19T00:00:00.000Z').valueOf();
sats=[{"MEAN_MOTION_DOT":"0.00015898","CENTER_NAME":"EARTH","TIME_SYSTEM":"UTC","APOAPSIS":"405.883","REF_FRAME":"TEME","EPHEMERIS_TYPE":"0","EPOCH":"2022-03-18T21:04:05.960928","ECCENTRICITY":"0.00081160","LAUNCH_DATE":"2021-03-24","DECAY_DATE":null,"MEAN_ANOMALY":"68.2453","TLE_LINE1":"1 48017U 21024AS  22077.87784677  .00015898  00000-0  23402-3 0  9996","MEAN_MOTION_DDOT":"0.0000000000000","COUNTRY_CODE":"US","CLASSIFICATION_TYPE":"U","RA_OF_ASC_NODE":"334.9160","OBJECT_NAME":"STARLINK-2239","ARG_OF_PERICENTER":"291.7694","SITE":"AFETR","BSTAR":"0.00023402000000","RCS_SIZE":"LARGE","NORAD_CAT_ID":"48017","ELEMENT_SET_NO":"999","PERIOD":"92.568","TLE_LINE2":"2 48017  53.0523 334.9160 0008116 291.7694  68.2453 15.55610090 56236","PERIAPSIS":"394.880","OBJECT_ID":"2021-024AS","INCLINATION":"53.0523","MEAN_MOTION":"15.55610090","MEAN_ELEMENT_THEORY":"SGP4","REV_AT_EPOCH":"5623","FILE":"3364757","GP_ID":"199103449","OBJECT_TYPE":"PAYLOAD","SEMIMAJOR_AXIS":"6778.517"},{"CENTER_NAME":"EARTH","MEAN_MOTION_DOT":"0.00007286","EPHEMERIS_TYPE":"0","EPOCH":"2022-03-18T05:10:50.121696","ECCENTRICITY":"0.00016200","LAUNCH_DATE":"2021-03-24","TIME_SYSTEM":"UTC","REF_FRAME":"TEME","APOAPSIS":"548.391","DECAY_DATE":null,"MEAN_ANOMALY":"304.5034","TLE_LINE1":"1 48018U 21024AT  22077.21585789  .00007286  00000-0  50774-3 0  9992","MEAN_MOTION_DDOT":"0.0000000000000","SITE":"AFETR","BSTAR":"0.00050774000000","COUNTRY_CODE":"US","RA_OF_ASC_NODE":"2.0195","CLASSIFICATION_TYPE":"U","OBJECT_NAME":"STARLINK-2282","ARG_OF_PERICENTER":"55.6108","NORAD_CAT_ID":"48018","ELEMENT_SET_NO":"999","RCS_SIZE":"LARGE","TLE_LINE2":"2 48018  53.0565   2.0195 0001620  55.6108 304.5034 15.06381851 55320","PERIAPSIS":"546.147","INCLINATION":"53.0565","OBJECT_ID":"2021-024AT","MEAN_MOTION":"15.06381851","PERIOD":"95.593","SEMIMAJOR_AXIS":"6925.404","REV_AT_EPOCH":"5532","MEAN_ELEMENT_THEORY":"SGP4","FILE":"3363650","GP_ID":"199007238","OBJECT_TYPE":"PAYLOAD"},{"FILE":"3364757","GP_ID":"199104438","OBJECT_TYPE":"PAYLOAD","REV_AT_EPOCH":"5603","MEAN_ELEMENT_THEORY":"SGP4","SEMIMAJOR_AXIS":"6925.264","PERIOD":"95.590","MEAN_MOTION":"15.06427742","TLE_LINE2":"2 48019  53.0545 348.9023 0001616  65.7755 294.3403 15.06427742 56031","INCLINATION":"53.0545","PERIAPSIS":"546.009","OBJECT_ID":"2021-024AU","RCS_SIZE":"LARGE","ELEMENT_SET_NO":"999","NORAD_CAT_ID":"48019","RA_OF_ASC_NODE":"348.9023","CLASSIFICATION_TYPE":"U","OBJECT_NAME":"STARLINK-2285","ARG_OF_PERICENTER":"65.7755","COUNTRY_CODE":"US","BSTAR":"0.00136610000000","SITE":"AFETR","MEAN_MOTION_DDOT":"0.0000000000000","TLE_LINE1":"1 48019U 21024AU  22077.91439097  .00020140  00000-0  13661-2 0  9997","MEAN_ANOMALY":"294.3403","DECAY_DATE":null,"APOAPSIS":"548.248","REF_FRAME":"TEME","TIME_SYSTEM":"UTC","LAUNCH_DATE":"2021-03-24","EPHEMERIS_TYPE":"0","ECCENTRICITY":"0.00016160","EPOCH":"2022-03-18T21:56:43.379808","MEAN_MOTION_DOT":"0.00020140","CENTER_NAME":"EARTH"},{"MEAN_MOTION_DDOT":"0.0000000000000","TLE_LINE1":"1 48020U 21024AV  22077.91667824 -.00006724  00000-0 -43287-3 0  9992","MEAN_ANOMALY":"281.7692","DECAY_DATE":null,"REF_FRAME":"TEME","APOAPSIS":"548.510","TIME_SYSTEM":"UTC","LAUNCH_DATE":"2021-03-24","EPHEMERIS_TYPE":"0","EPOCH":"2022-03-18T22:00:00.999936","ECCENTRICITY":"0.00018810","MEAN_MOTION_DOT":"-0.00006724","CENTER_NAME":"EARTH","FILE":"3364757","GP_ID":"199102700","OBJECT_TYPE":"PAYLOAD","MEAN_ELEMENT_THEORY":"SGP4","REV_AT_EPOCH":"360","SEMIMAJOR_AXIS":"6925.342","PERIOD":"95.592","MEAN_MOTION":"15.06402139","TLE_LINE2":"2 48020  53.0544 303.8739 0001881  63.3532 281.7692 15.06402139  3605","PERIAPSIS":"545.904","INCLINATION":"53.0544","OBJECT_ID":"2021-024AV","RCS_SIZE":"LARGE","NORAD_CAT_ID":"48020","ELEMENT_SET_NO":"999","RA_OF_ASC_NODE":"303.8739","CLASSIFICATION_TYPE":"U","OBJECT_NAME":"STARLINK-2294","ARG_OF_PERICENTER":"63.3532","COUNTRY_CODE":"US","BSTAR":"-0.00043287000000","SITE":"AFETR"},{"NORAD_CAT_ID":"48021","ELEMENT_SET_NO":"999","RCS_SIZE":"LARGE","SITE":"AFETR","BSTAR":"0.00055185000000","COUNTRY_CODE":"US","ARG_OF_PERICENTER":"54.4342","RA_OF_ASC_NODE":"308.9501","CLASSIFICATION_TYPE":"U","OBJECT_NAME":"STARLINK-2301","SEMIMAJOR_AXIS":"6925.294","MEAN_ELEMENT_THEORY":"SGP4","REV_AT_EPOCH":"5660","OBJECT_TYPE":"PAYLOAD","FILE":"3364757","GP_ID":"199102950","INCLINATION":"53.0545","PERIAPSIS":"545.991","OBJECT_ID":"2021-024AW","TLE_LINE2":"2 48021  53.0545 308.9501 0001686  54.4342 305.6804 15.06417890 56602","MEAN_MOTION":"15.06417890","PERIOD":"95.591","ECCENTRICITY":"0.00016860","EPOCH":"2022-03-18T21:40:46.987104","EPHEMERIS_TYPE":"0","LAUNCH_DATE":"2021-03-24","TIME_SYSTEM":"UTC","APOAPSIS":"548.326","REF_FRAME":"TEME","CENTER_NAME":"EARTH","MEAN_MOTION_DOT":"0.00007952","MEAN_ANOMALY":"305.6804","TLE_LINE1":"1 48021U 21024AW  22077.90332161  .00007952  00000-0  55185-3 0  9997","MEAN_MOTION_DDOT":"0.0000000000000","DECAY_DATE":null},{"SEMIMAJOR_AXIS":"6925.305","OBJECT_TYPE":"PAYLOAD","FILE":"3364757","GP_ID":"199104200","MEAN_ELEMENT_THEORY":"SGP4","REV_AT_EPOCH":"5581","MEAN_MOTION":"15.06414273","INCLINATION":"53.0559","PERIAPSIS":"545.964","OBJECT_ID":"2021-024AX","TLE_LINE2":"2 48022  53.0559   8.9409 0001741  50.8236 309.2907 15.06414273 55814","PERIOD":"95.591","NORAD_CAT_ID":"48022","ELEMENT_SET_NO":"999","RCS_SIZE":"LARGE","BSTAR":"0.00038623000000","SITE":"AFETR","ARG_OF_PERICENTER":"50.8236","OBJECT_NAME":"STARLINK-2298","CLASSIFICATION_TYPE":"U","RA_OF_ASC_NODE":"8.9409","COUNTRY_CODE":"US","MEAN_MOTION_DDOT":"0.0000000000000","TLE_LINE1":"1 48022U 21024AX  22077.90421278  .00005478  00000-0  38623-3 0  9995","MEAN_ANOMALY":"309.2907","DECAY_DATE":null,"LAUNCH_DATE":"2021-03-24","EPOCH":"2022-03-18T21:42:03.984192","ECCENTRICITY":"0.00017410","EPHEMERIS_TYPE":"0","APOAPSIS":"548.376","REF_FRAME":"TEME","TIME_SYSTEM":"UTC","CENTER_NAME":"EARTH","MEAN_MOTION_DOT":"0.00005478"},{"SITE":"AFETR","BSTAR":"0.00088479000000","COUNTRY_CODE":"US","RA_OF_ASC_NODE":"11.5447","CLASSIFICATION_TYPE":"U","OBJECT_NAME":"STARLINK-2292","ARG_OF_PERICENTER":"59.7877","NORAD_CAT_ID":"48023","ELEMENT_SET_NO":"999","RCS_SIZE":"LARGE","TLE_LINE2":"2 48023  53.0565  11.5447 0001588  59.7877 300.3269 15.06417164 55727","PERIAPSIS":"546.061","OBJECT_ID":"2021-024AY","INCLINATION":"53.0565","MEAN_MOTION":"15.06417164","PERIOD":"95.591","SEMIMAJOR_AXIS":"6925.296","MEAN_ELEMENT_THEORY":"SGP4","REV_AT_EPOCH":"5572","GP_ID":"199044213","FILE":"3364342","OBJECT_TYPE":"PAYLOAD","CENTER_NAME":"EARTH","MEAN_MOTION_DOT":"0.00012928","EPHEMERIS_TYPE":"0","EPOCH":"2022-03-18T07:44:47.853312","ECCENTRICITY":"0.00015880","LAUNCH_DATE":"2021-03-24","TIME_SYSTEM":"UTC","REF_FRAME":"TEME","APOAPSIS":"548.261","DECAY_DATE":null,"TLE_LINE1":"1 48023U 21024AY  22077.32277608  .00012928  00000-0  88479-3 0  9990","MEAN_ANOMALY":"300.3269","MEAN_MOTION_DDOT":"0.0000000000000"},{"SITE":"AFETR","BSTAR":"0.00032442000000","COUNTRY_CODE":"US","ARG_OF_PERICENTER":"60.2489","CLASSIFICATION_TYPE":"U","RA_OF_ASC_NODE":"14.5540","OBJECT_NAME":"STARLINK-2278","ELEMENT_SET_NO":"999","NORAD_CAT_ID":"48026","RCS_SIZE":"LARGE","OBJECT_ID":"2021-024BB","PERIAPSIS":"545.982","INCLINATION":"53.0544","TLE_LINE2":"2 48026  53.0544  14.5540 0001783  60.2489 299.8678 15.06399051 55660","MEAN_MOTION":"15.06399051","PERIOD":"95.592","SEMIMAJOR_AXIS":"6925.351","REV_AT_EPOCH":"5566","MEAN_ELEMENT_THEORY":"SGP4","OBJECT_TYPE":"PAYLOAD","FILE":"3364757","GP_ID":"199103200","CENTER_NAME":"EARTH","MEAN_MOTION_DOT":"0.00004554","ECCENTRICITY":"0.00017830","EPOCH":"2022-03-18T18:23:43.781280","EPHEMERIS_TYPE":"0","LAUNCH_DATE":"2021-03-24","TIME_SYSTEM":"UTC","APOAPSIS":"548.451","REF_FRAME":"TEME","DECAY_DATE":null,"TLE_LINE1":"1 48026U 21024BB  22077.76647895  .00004554  00000-0  32442-3 0  9995","MEAN_ANOMALY":"299.8678","MEAN_MOTION_DDOT":"0.0000000000000"},{"DECAY_DATE":null,"MEAN_MOTION_DDOT":"0.0000000000000","TLE_LINE1":"1 48027U 21024BC  22077.92542778  .00005005  00000-0  35455-3 0  9997","MEAN_ANOMALY":"299.8427","CENTER_NAME":"EARTH","MEAN_MOTION_DOT":"0.00005005","LAUNCH_DATE":"2021-03-24","EPOCH":"2022-03-18T22:12:36.960192","ECCENTRICITY":"0.00024510","EPHEMERIS_TYPE":"0","APOAPSIS":"548.866","REF_FRAME":"TEME","TIME_SYSTEM":"UTC","MEAN_MOTION":"15.06414671","OBJECT_ID":"2021-024BC","PERIAPSIS":"545.471","INCLINATION":"53.0565","TLE_LINE2":"2 48027  53.0565 348.8496 0002451  60.2805 299.8427 15.06414671 56032","PERIOD":"95.591","SEMIMAJOR_AXIS":"6925.304","OBJECT_TYPE":"PAYLOAD","FILE":"3364757","GP_ID":"199103450","MEAN_ELEMENT_THEORY":"SGP4","REV_AT_EPOCH":"5603","BSTAR":"0.00035455000000","SITE":"AFETR","ARG_OF_PERICENTER":"60.2805","OBJECT_NAME":"STARLINK-2300","CLASSIFICATION_TYPE":"U","RA_OF_ASC_NODE":"348.8496","COUNTRY_CODE":"US","NORAD_CAT_ID":"48027","ELEMENT_SET_NO":"999","RCS_SIZE":"LARGE"},{"RCS_SIZE":"LARGE","NORAD_CAT_ID":"48028","ELEMENT_SET_NO":"999","ARG_OF_PERICENTER":"64.1896","CLASSIFICATION_TYPE":"U","OBJECT_NAME":"STARLINK-2264","RA_OF_ASC_NODE":"303.8915","COUNTRY_CODE":"US","BSTAR":"-0.00063660000000","SITE":"AFETR","OBJECT_TYPE":"PAYLOAD","GP_ID":"199103701","FILE":"3364757","REV_AT_EPOCH":"360","MEAN_ELEMENT_THEORY":"SGP4","SEMIMAJOR_AXIS":"6925.294","PERIOD":"95.591","MEAN_MOTION":"15.06417890","PERIAPSIS":"545.869","OBJECT_ID":"2021-024BD","INCLINATION":"53.0530","TLE_LINE2":"2 48028  53.0530 303.8915 0001862  64.1896 181.0342 15.06417890  3609","APOAPSIS":"548.448","REF_FRAME":"TEME","TIME_SYSTEM":"UTC","LAUNCH_DATE":"2021-03-24","EPOCH":"2022-03-18T22:00:00.999936","ECCENTRICITY":"0.00018620","EPHEMERIS_TYPE":"0","MEAN_MOTION_DOT":"-0.00009756","CENTER_NAME":"EARTH","MEAN_MOTION_DDOT":"0.0000000000000","MEAN_ANOMALY":"181.0342","TLE_LINE1":"1 48028U 21024BD  22077.91667824 -.00009756  00000-0 -63660-3 0  9995","DECAY_DATE":null}];
